QIANFAN-33              
1 61566U 24185Q   26003.18412778  .00000685  00000+0  48561-3 0  9998
2 61566  88.9787  76.4214 0005219 251.0629 108.9982 13.96573125 72153
QIANFAN-34              
1 61567U 24185R   26003.13295161  .00000745  00000+0  47696-3 0  9994
2 61567  88.9764  75.9622 0003552 257.3760 102.7023 14.02328985 72359
QIANFAN-35              
1 61568U 24185S   26003.13992028  .00001383  00000+0  55192-3 0  9990
2 61568  88.9788  74.3715 0005862 195.7804 164.3208 14.28011801 73233
QIANFAN-36              
1 61569U 24185T   26003.14728410  .00000030  00000+0  25777-4 0  9999
2 61569  88.9773  78.8189 0005229 359.4237   0.6910 13.55594897 70822
QIANFAN-37              
1 62238U 24232B   26003.10084433  .00000104  00000+0  14274-3 0  9993
2 62238  89.0000  39.1721 0002394  82.5385 277.6038 13.50981687102051
QIANFAN-38              
1 62239U 24232C   26003.12553794  .00000117  00000+0  16250-3 0  9997
2 62239  89.0007  39.0869 0016191 129.3873 230.8715 13.50979451102119
QIANFAN-39              
1 62240U 24232D   26003.11557134  .00000494  00000+0  20332-3 0  9994
2 62240  88.9999  34.8631 0016534  16.9549 343.2193 14.25407881104433
QIANFAN-40              
1 62241U 24232E   26003.15845560  .00000123  00000+0  17126-3 0  9998
2 62241  89.0034  38.6739 0015055 136.1804 224.0545 13.50979530102485
